STARLINK-31786          
1 59771U 24091U   26068.30985901 -.00000558  00000+0 -67258-5 0  9994
2 59771  53.1616  28.8329 0001242  65.6033 294.5097 15.30193136102941
YAOGAN-43 01G           
1 60464U 24148G   26068.44348481  .00010133  00000+0  35873-3 0  9993
2 60464  35.0006  62.0013 0007382 306.3543  53.6492 15.28332833 87004
